CCSDS_OMM_VERS = 2.0
CREATION_DATE  = 
ORIGINATOR     = 

OBJECT_NAME    = SL-4 R/B
OBJECT_ID      = 2014-021B
CENTER_NAME    = EARTH
REF_FRAME      = TEME
TIME_SYSTEM    = UTC
MEAN_ELEMENT_THEORY = SGP/SGP4

EPOCH          = 2025-12-11T10:41:07.090080
MEAN_MOTION    = 15.36621169
ECCENTRICITY   = .01018482
INCLINATION    = 51.6082
RA_OF_ASC_NODE = 46.8846
ARG_OF_PERICENTER = 141.5127
MEAN_ANOMALY   = 219.3176

EPHEMERIS_TYPE = 0
CLASSIFICATION_TYPE = U
NORAD_CAT_ID   = 39679
ELEMENT_SET_NO = 999
REV_AT_EPOCH   = 64269
BSTAR          = .45394835E-3
MEAN_MOTION_DOT = .19245E-3
MEAN_MOTION_DDOT = 0

CCSDS_OMM_VERS = 2.0
CREATION_DATE  = 
ORIGINATOR     = 

OBJECT_NAME    = ALOS-2
OBJECT_ID      = 2014-029A
CENTER_NAME    = EARTH
REF_FRAME      = TEME
TIME_SYSTEM    = UTC
MEAN_ELEMENT_THEORY = SGP/SGP4

EPOCH          = 2025-12-11T23:58:40.105920
MEAN_MOTION    = 14.79468340
ECCENTRICITY   = .0001411
INCLINATION    = 97.9219
RA_OF_ASC_NODE = 80.8553
ARG_OF_PERICENTER = 102.1920
MEAN_ANOMALY   = 257.9450

EPHEMERIS_TYPE = 0
CLASSIFICATION_TYPE = U
NORAD_CAT_ID   = 39766
ELEMENT_SET_NO = 999
REV_AT_EPOCH   = 62390
BSTAR          = .52746193E-3
MEAN_MOTION_DOT = .3889E-4
MEAN_MOTION_DDOT = 0

CCSDS_OMM_VERS = 2.0
CREATION_DATE  = 
ORIGINATOR     = 

OBJECT_NAME    = YAOGAN-29
OBJECT_ID      = 2015-069A
CENTER_NAME    = EARTH
REF_FRAME      = TEME
TIME_SYSTEM    = UTC
MEAN_ELEMENT_THEORY = SGP/SGP4

EPOCH          = 2025-12-12T00:14:14.462304
MEAN_MOTION    = 14.82879056
ECCENTRICITY   = .00002713
INCLINATION    = 98.0221
RA_OF_ASC_NODE = 9.1788
ARG_OF_PERICENTER = 330.2014
MEAN_ANOMALY   = 29.9184

EPHEMERIS_TYPE = 0
CLASSIFICATION_TYPE = U
NORAD_CAT_ID   = 41038
ELEMENT_SET_NO = 999
REV_AT_EPOCH   = 54288
BSTAR          = .52699903E-4
MEAN_MOTION_DOT = .373E-5
MEAN_MOTION_DDOT = 0

CCSDS_OMM_VERS = 2.0
CREATION_DATE  = 
ORIGINATOR     = 

OBJECT_NAME    = ASTRO-H (HITOMI)
OBJECT_ID      = 2016-012A
CENTER_NAME    = EARTH
REF_FRAME      = TEME
TIME_SYSTEM    = UTC
MEAN_ELEMENT_THEORY = SGP/SGP4

EPOCH          = 2025-12-11T23:06:19.458144
MEAN_MOTION    = 15.09345304
ECCENTRICITY   = .00095517
INCLINATION    = 30.9983
RA_OF_ASC_NODE = 202.3821
ARG_OF_PERICENTER = 171.3487
MEAN_ANOMALY   = 188.7316

EPHEMERIS_TYPE = 0
CLASSIFICATION_TYPE = U
NORAD_CAT_ID   = 41337
ELEMENT_SET_NO = 999
REV_AT_EPOCH   = 53896
BSTAR          = .30197164E-3
MEAN_MOTION_DOT = .5037E-4
MEAN_MOTION_DDOT = 0

CCSDS_OMM_VERS = 2.0
CREATION_DATE  = 
ORIGINATOR     = 

OBJECT_NAME    = HXMT (HUIYAN)
OBJECT_ID      = 2017-034A
CENTER_NAME    = EARTH
REF_FRAME      = TEME
TIME_SYSTEM    = UTC
MEAN_ELEMENT_THEORY = SGP/SGP4

EPOCH          = 2025-12-11T19:15:52.683840
MEAN_MOTION    = 15.16226610
ECCENTRICITY   = .0031577
INCLINATION    = 43.0131
RA_OF_ASC_NODE = 144.8279
ARG_OF_PERICENTER = 37.2936
MEAN_ANOMALY   = 323.0096

EPHEMERIS_TYPE = 0
CLASSIFICATION_TYPE = U
NORAD_CAT_ID   = 42758
ELEMENT_SET_NO = 999
REV_AT_EPOCH   = 46919
BSTAR          = .27469397E-3
MEAN_MOTION_DOT = .5235E-4
MEAN_MOTION_DDOT = 0

CCSDS_OMM_VERS = 2.0
CREATION_DATE  = 
ORIGINATOR     = 

OBJECT_NAME    = CZ-2C R/B
OBJECT_ID      = 2018-054D
CENTER_NAME    = EARTH
REF_FRAME      = TEME
TIME_SYSTEM    = UTC
MEAN_ELEMENT_THEORY = SGP/SGP4

EPOCH          = 2025-12-11T23:21:55.735200
MEAN_MOTION    = 15.73907456
ECCENTRICITY   = .00153954
INCLINATION    = 35.1322
RA_OF_ASC_NODE = 186.0954
ARG_OF_PERICENTER = 136.0419
MEAN_ANOMALY   = 224.1541

EPHEMERIS_TYPE = 0
CLASSIFICATION_TYPE = U
NORAD_CAT_ID   = 43521
ELEMENT_SET_NO = 999
REV_AT_EPOCH   = 41493
BSTAR          = .85682412E-3
MEAN_MOTION_DOT = .128957E-2
MEAN_MOTION_DDOT = 0

CCSDS_OMM_VERS = 2.0
CREATION_DATE  = 
ORIGINATOR     = 

OBJECT_NAME    = SAOCOM 1A
OBJECT_ID      = 2018-076A
CENTER_NAME    = EARTH
REF_FRAME      = TEME
TIME_SYSTEM    = UTC
MEAN_ELEMENT_THEORY = SGP/SGP4

EPOCH          = 2025-12-11T23:55:23.238336
MEAN_MOTION    = 14.82155698
ECCENTRICITY   = .00014866
INCLINATION    = 97.8846
RA_OF_ASC_NODE = 170.4297
ARG_OF_PERICENTER = 80.0953
MEAN_ANOMALY   = 280.0428

EPHEMERIS_TYPE = 0
CLASSIFICATION_TYPE = U
NORAD_CAT_ID   = 43641
ELEMENT_SET_NO = 999
REV_AT_EPOCH   = 38837
BSTAR          = .10898932E-3
MEAN_MOTION_DOT = .816E-5
MEAN_MOTION_DDOT = 0

CCSDS_OMM_VERS = 2.0
CREATION_DATE  = 
ORIGINATOR     = 

OBJECT_NAME    = H-2A R/B
OBJECT_ID      = 2018-084L
CENTER_NAME    = EARTH
REF_FRAME      = TEME
TIME_SYSTEM    = UTC
MEAN_ELEMENT_THEORY = SGP/SGP4

EPOCH          = 2025-12-11T23:26:11.912064
MEAN_MOTION    = 15.37326898
ECCENTRICITY   = .00273964
INCLINATION    = 98.8777
RA_OF_ASC_NODE = 179.8971
ARG_OF_PERICENTER = 329.1681
MEAN_ANOMALY   = 30.7949

EPHEMERIS_TYPE = 0
CLASSIFICATION_TYPE = U
NORAD_CAT_ID   = 43682
ELEMENT_SET_NO = 999
REV_AT_EPOCH   = 39228
BSTAR          = .65911136E-3
MEAN_MOTION_DOT = .24356E-3
MEAN_MOTION_DDOT = 0

CCSDS_OMM_VERS = 2.0
CREATION_DATE  = 
ORIGINATOR     = 

OBJECT_NAME    = SAOCOM 1B
OBJECT_ID      = 2020-059A
CENTER_NAME    = EARTH
REF_FRAME      = TEME
TIME_SYSTEM    = UTC
MEAN_ELEMENT_THEORY = SGP/SGP4

EPOCH          = 2025-12-12T00:40:23.058624
MEAN_MOTION    = 14.82161680
ECCENTRICITY   = .00013274
INCLINATION    = 97.8843
RA_OF_ASC_NODE = 169.5611
ARG_OF_PERICENTER = 82.9864
MEAN_ANOMALY   = 277.1500

EPHEMERIS_TYPE = 0
CLASSIFICATION_TYPE = U
NORAD_CAT_ID   = 46265
ELEMENT_SET_NO = 999
REV_AT_EPOCH   = 28576
BSTAR          = .18653939E-3
MEAN_MOTION_DOT = .1433E-4
MEAN_MOTION_DDOT = 0

CCSDS_OMM_VERS = 2.0
CREATION_DATE  = 
ORIGINATOR     = 

OBJECT_NAME    = CSS (TIANHE)
OBJECT_ID      = 2021-035A
CENTER_NAME    = EARTH
REF_FRAME      = TEME
TIME_SYSTEM    = UTC
MEAN_ELEMENT_THEORY = SGP/SGP4

EPOCH          = 2025-12-11T19:37:47.505216
MEAN_MOTION    = 15.59116827
ECCENTRICITY   = .00085427
INCLINATION    = 41.4685
RA_OF_ASC_NODE = 22.3040
ARG_OF_PERICENTER = 22.5495
MEAN_ANOMALY   = 337.5718

EPHEMERIS_TYPE = 0
CLASSIFICATION_TYPE = U
NORAD_CAT_ID   = 48274
ELEMENT_SET_NO = 999
REV_AT_EPOCH   = 26388
BSTAR          = .35527983E-3
MEAN_MOTION_DOT = .28382E-3
MEAN_MOTION_DDOT = 0

CCSDS_OMM_VERS = 2.0
CREATION_DATE  = 
ORIGINATOR     = 

OBJECT_NAME    = COSMOS 2550
OBJECT_ID      = 2021-056A
CENTER_NAME    = EARTH
REF_FRAME      = TEME
TIME_SYSTEM    = UTC
MEAN_ELEMENT_THEORY = SGP/SGP4

EPOCH          = 2025-12-12T00:12:37.454976
MEAN_MOTION    = 15.33829427
ECCENTRICITY   = .00083428
INCLINATION    = 67.1454
RA_OF_ASC_NODE = 306.1447
ARG_OF_PERICENTER = 269.3835
MEAN_ANOMALY   = 90.6364

EPHEMERIS_TYPE = 0
CLASSIFICATION_TYPE = U
NORAD_CAT_ID   = 48865
ELEMENT_SET_NO = 999
REV_AT_EPOCH   = 25001
BSTAR          = .5574532E-5
MEAN_MOTION_DOT = -.8E-7
MEAN_MOTION_DDOT = 0

CCSDS_OMM_VERS = 2.0
CREATION_DATE  = 
ORIGINATOR     = 

OBJECT_NAME    = CZ-2C R/B
OBJECT_ID      = 2022-058K
CENTER_NAME    = EARTH
REF_FRAME      = TEME
TIME_SYSTEM    = UTC
MEAN_ELEMENT_THEORY = SGP/SGP4

EPOCH          = 2025-12-11T10:50:53.732256
MEAN_MOTION    = 15.48416001
ECCENTRICITY   = .00455436
INCLINATION    = 50.1917
RA_OF_ASC_NODE = 50.1158
ARG_OF_PERICENTER = 193.1695
MEAN_ANOMALY   = 166.8087

EPHEMERIS_TYPE = 0
CLASSIFICATION_TYPE = U
NORAD_CAT_ID   = 52794
ELEMENT_SET_NO = 999
REV_AT_EPOCH   = 19643
BSTAR          = .75611821E-3
MEAN_MOTION_DOT = .42346E-3
MEAN_MOTION_DDOT = 0

