SL-4 R/B                
1 39679U 14021B   25345.44522095  .00019245  00000+0  45395-3 0  9991
2 39679  51.6082  46.8846 0101848 141.5127 219.3176 15.36621169642693
ALOS-2                  
1 39766U 14029A   25345.99907530  .00003889  00000+0  52746-3 0  9992
2 39766  97.9219  80.8553 0001411 102.1920 257.9450 14.79468340623909
YAOGAN-29               
1 41038U 15069A   25346.00988961  .00000373  00000+0  52700-4 0  9998
2 41038  98.0221   9.1788 0000271 330.2014  29.9184 14.82879056542886
ASTRO-H (HITOMI)        
1 41337U 16012A   25345.96272521  .00005037  00000+0  30197-3 0  9998
2 41337  30.9983 202.3821 0009551 171.3487 188.7316 15.09345304538960
HXMT (HUIYAN)           
1 42758U 17034A   25345.80269310  .00005235  00000+0  27469-3 0  9994
2 42758  43.0131 144.8279 0031577  37.2936 323.0096 15.16226610469190
CZ-2C R/B               
1 43521U 18054D   25345.97356175  .00128957  00000+0  85682-3 0  9998
2 43521  35.1322 186.0954 0015395 136.0419 224.1541 15.73907456414930
SAOCOM 1A               
1 43641U 18076A   25345.99679674  .00000816  00000+0  10899-3 0  9990
2 43641  97.8846 170.4297 0001486  80.0953 280.0428 14.82155698388378
H-2A R/B                
1 43682U 18084L   25345.97652676  .00024356  00000+0  65911-3 0  9995
2 43682  98.8777 179.8971 0027396 329.1681  30.7949 15.37326898392288
SAOCOM 1B               
1 46265U 20059A   25346.02804466  .00001433  00000+0  18654-3 0  9996
2 46265  97.8843 169.5611 0001327  82.9864 277.1500 14.82161680285760
CSS (TIANHE)            
1 48274U 21035A   25345.81791094  .00028382  00000+0  35528-3 0  9992
2 48274  41.4685  22.3040 0008542  22.5495 337.5718 15.59116827263888
COSMOS 2550             
1 48865U 21056A   25346.00876684 -.00000008  00000+0  55745-5 0  9993
2 48865  67.1454 306.1447 0008342 269.3835  90.6364 15.33829427250018
CZ-2C R/B               
1 52794U 22058K   25345.45201079  .00042346  00000+0  75612-3 0  9993
2 52794  50.1917  50.1158 0045543 193.1695 166.8087 15.48416001196436
